[{"OBJECT_NAME":"IRIDIUM 170","OBJECT_ID":"2019-002J","EPOCH":"2026-03-09T22:22:31.188288","MEAN_MOTION":14.72262238,"ECCENTRICITY":0.00027319,"INCLINATION":86.6095,"RA_OF_ASC_NODE":35.0236,"ARG_OF_PERICENTER":88.7648,"MEAN_ANOMALY":271.3882,"EPHEMERIS_TYPE":0,"CLASSIFICATION_TYPE":"U","NORAD_CAT_ID":43930,"ELEMENT_SET_NO":999,"REV_AT_EPOCH":38465,"BSTAR":0.00020964732,"MEAN_MOTION_DOT":1.347e-5,"MEAN_MOTION_DDOT":0},{"OBJECT_NAME":"TAURUS R\/B","OBJECT_ID":"1998-055B","EPOCH":"2026-03-09T17:24:26.684640","MEAN_MOTION":14.71627279,"ECCENTRICITY":0.00137342,"INCLINATION":85.0674,"RA_OF_ASC_NODE":304.8026,"ARG_OF_PERICENTER":205.095,"MEAN_ANOMALY":154.9598,"EPHEMERIS_TYPE":0,"CLASSIFICATION_TYPE":"U","NORAD_CAT_ID":25490,"ELEMENT_SET_NO":999,"REV_AT_EPOCH":47032,"BSTAR":9.8401336e-5,"MEAN_MOTION_DOT":6.38e-6,"MEAN_MOTION_DDOT":0}]
